{
  "type": "FeatureCollection",
  "features": [
    {
      "type": "Feature",
      "properties": {
        "norad_id": 25590,
        "name": "COSMOS 2361",
        "group": "musson",
        "lat": 59.185025815805794,
        "lon": -12.761481401657468,
        "alt_km": 1004.3500493353531,
        "timestamp": "2025-12-24T16:52:41.801686+00:00",
        "meta_object_name": "COSMOS 2361",
        "meta_object_id": "1998-076A",
        "meta_epoch": "2025-12-24T04:23:50.248608",
        "meta_mean_motion": 13.73218715,
        "meta_eccentricity": 0.00302887,
        "meta_inclination": 82.9345,
        "meta_ra_of_asc_node": 335.6223,
        "meta_arg_of_pericenter": 232.4795,
        "meta_mean_anomaly": 138.1339,
        "meta_ephemeris_type": 0,
        "meta_classification_type": "U",
        "meta_norad_cat_id": 25590,
        "meta_element_set_no": 999,
        "meta_rev_at_epoch": 35268,
        "meta_bstar": 4.5147952e-05,
        "meta_mean_motion_dot": 5.7e-07,
        "meta_mean_motion_ddot": 0,
        "tle_line1": "1 25590U 98076A   25358.18322047  .00000057  00000+0  45148-4 0  9998",
        "tle_line2": "2 25590  82.9345 335.6223 0030288 232.4795 138.1339 13.73218715352681"
      },
      "geometry": {
        "type": "Point",
        "coordinates": [
          -12.761481401657468,
          59.185025815805794
        ]
      }
    },
    {
      "type": "Feature",
      "properties": {
        "norad_id": 26818,
        "name": "COSMOS 2378",
        "group": "musson",
        "lat": 7.39564981484146,
        "lon": 169.93028548849583,
        "alt_km": 962.2404671981085,
        "timestamp": "2025-12-24T16:52:41.801709+00:00",
        "meta_object_name": "COSMOS 2378",
        "meta_object_id": "2001-023A",
        "meta_epoch": "2025-12-24T02:23:31.655616",
        "meta_mean_motion": 13.74142919,
        "meta_eccentricity": 0.00331114,
        "meta_inclination": 82.9272,
        "meta_ra_of_asc_node": 351.301,
        "meta_arg_of_pericenter": 173.0325,
        "meta_mean_anomaly": 255.1688,
        "meta_ephemeris_type": 0,
        "meta_classification_type": "U",
        "meta_norad_cat_id": 26818,
        "meta_element_set_no": 999,
        "meta_rev_at_epoch": 23079,
        "meta_bstar": 3.4432096e-05,
        "meta_mean_motion_dot": 4.8e-07,
        "meta_mean_motion_ddot": 0,
        "tle_line1": "1 26818U 01023A   25358.09967194  .00000048  00000+0  34432-4 0  9990",
        "tle_line2": "2 26818  82.9272 351.3010 0033111 173.0325 255.1688 13.74142919230797"
      },
      "geometry": {
        "type": "Point",
        "coordinates": [
          169.93028548849583,
          7.39564981484146
        ]
      }
    },
    {
      "type": "Feature",
      "properties": {
        "norad_id": 27436,
        "name": "COSMOS 2389",
        "group": "musson",
        "lat": 62.30690684991585,
        "lon": -48.23663240006603,
        "alt_km": 946.6290232305637,
        "timestamp": "2025-12-24T16:52:41.801723+00:00",
        "meta_object_name": "COSMOS 2389",
        "meta_object_id": "2002-026A",
        "meta_epoch": "2025-12-24T06:38:10.640256",
        "meta_mean_motion": 13.75155863,
        "meta_eccentricity": 0.00471269,
        "meta_inclination": 82.9512,
        "meta_ra_of_asc_node": 298.4445,
        "meta_arg_of_pericenter": 29.2581,
        "meta_mean_anomaly": 82.1722,
        "meta_ephemeris_type": 0,
        "meta_classification_type": "U",
        "meta_norad_cat_id": 27436,
        "meta_element_set_no": 999,
        "meta_rev_at_epoch": 18307,
        "meta_bstar": 6.591508e-05,
        "meta_mean_motion_dot": 7.9e-07,
        "meta_mean_motion_ddot": 0,
        "tle_line1": "1 27436U 02026A   25358.27651204  .00000079  00000+0  65915-4 0  9997",
        "tle_line2": "2 27436  82.9512 298.4445 0047126  29.2581  82.1722 13.75155863183079"
      },
      "geometry": {
        "type": "Point",
        "coordinates": [
          -48.23663240006603,
          62.30690684991585
        ]
      }
    },
    {
      "type": "Feature",
      "properties": {
        "norad_id": 27818,
        "name": "COSMOS 2398",
        "group": "musson",
        "lat": -74.81135670144631,
        "lon": 111.00731689980866,
        "alt_km": 1022.408041462164,
        "timestamp": "2025-12-24T16:52:41.801735+00:00",
        "meta_object_name": "COSMOS 2398",
        "meta_object_id": "2003-023A",
        "meta_epoch": "2025-12-24T07:29:31.087104",
        "meta_mean_motion": 13.72387012,
        "meta_eccentricity": 0.00326932,
        "meta_inclination": 82.9483,
        "meta_ra_of_asc_node": 264.1708,
        "meta_arg_of_pericenter": 80.9703,
        "meta_mean_anomaly": 44.3324,
        "meta_ephemeris_type": 0,
        "meta_classification_type": "U",
        "meta_norad_cat_id": 27818,
        "meta_element_set_no": 999,
        "meta_rev_at_epoch": 12975,
        "meta_bstar": 7.7536663e-05,
        "meta_mean_motion_dot": 8.6e-07,
        "meta_mean_motion_ddot": 0,
        "tle_line1": "1 27818U 03023A   25358.31216536  .00000086  00000+0  77537-4 0  9990",
        "tle_line2": "2 27818  82.9483 264.1708 0032693  80.9703  44.3324 13.72387012129758"
      },
      "geometry": {
        "type": "Point",
        "coordinates": [
          111.00731689980866,
          -74.81135670144631
        ]
      }
    },
    {
      "type": "Feature",
      "properties": {
        "norad_id": 28380,
        "name": "COSMOS 2407",
        "group": "musson",
        "lat": -78.40409128902859,
        "lon": 61.06583704606733,
        "alt_km": 999.5086111014953,
        "timestamp": "2025-12-24T16:52:41.801747+00:00",
        "meta_object_name": "COSMOS 2407",
        "meta_object_id": "2004-028A",
        "meta_epoch": "2025-12-24T07:43:36.136992",
        "meta_mean_motion": 13.76314933,
        "meta_eccentricity": 0.00397816,
        "meta_inclination": 82.9594,
        "meta_ra_of_asc_node": 204.317,
        "meta_arg_of_pericenter": 23.1996,
        "meta_mean_anomaly": 149.6853,
        "meta_ephemeris_type": 0,
        "meta_classification_type": "U",
        "meta_norad_cat_id": 28380,
        "meta_element_set_no": 999,
        "meta_rev_at_epoch": 7582,
        "meta_bstar": 3.8017304e-05,
        "meta_mean_motion_dot": 5.3e-07,
        "meta_mean_motion_ddot": 0,
        "tle_line1": "1 28380U 04028A   25358.32194603  .00000053  00000+0  38017-4 0  9996",
        "tle_line2": "2 28380  82.9594 204.3170 0039781  23.1996 149.6853 13.76314933 75823"
      },
      "geometry": {
        "type": "Point",
        "coordinates": [
          61.06583704606733,
          -78.40409128902859
        ]
      }
    },
    {
      "type": "Feature",
      "properties": {
        "norad_id": 28521,
        "name": "COSMOS 2414",
        "group": "musson",
        "lat": -56.46587177324082,
        "lon": 164.8497353582683,
        "alt_km": 972.0628388409395,
        "timestamp": "2025-12-24T16:52:41.801759+00:00",
        "meta_object_name": "COSMOS 2414",
        "meta_object_id": "2005-002A",
        "meta_epoch": "2025-12-23T11:44:27.459744",
        "meta_mean_motion": 13.87904329,
        "meta_eccentricity": 0.00413832,
        "meta_inclination": 82.9488,
        "meta_ra_of_asc_node": 176.5312,
        "meta_arg_of_pericenter": 109.8571,
        "meta_mean_anomaly": 250.706,
        "meta_ephemeris_type": 0,
        "meta_classification_type": "U",
        "meta_norad_cat_id": 28521,
        "meta_element_set_no": 999,
        "meta_rev_at_epoch": 5944,
        "meta_bstar": 3.8343846e-05,
        "meta_mean_motion_dot": 6.2e-07,
        "meta_mean_motion_ddot": 0,
        "tle_line1": "1 28521U 05002A   25357.48920671  .00000062  00000+0  38344-4 0  9997",
        "tle_line2": "2 28521  82.9488 176.5312 0041383 109.8571 250.7060 13.87904329 59442"
      },
      "geometry": {
        "type": "Point",
        "coordinates": [
          164.8497353582683,
          -56.46587177324082
        ]
      }
    },
    {
      "type": "Feature",
      "properties": {
        "norad_id": 32052,
        "name": "COSMOS 2429",
        "group": "musson",
        "lat": -67.09779483818059,
        "lon": 171.44433338106813,
        "alt_km": 1001.1136885884043,
        "timestamp": "2025-12-24T16:52:41.801770+00:00",
        "meta_object_name": "COSMOS 2429",
        "meta_object_id": "2007-038A",
        "meta_epoch": "2025-12-24T06:56:32.826912",
        "meta_mean_motion": 13.75150493,
        "meta_eccentricity": 0.00385543,
        "meta_inclination": 82.9808,
        "meta_ra_of_asc_node": 334.7942,
        "meta_arg_of_pericenter": 6.0726,
        "meta_mean_anomaly": 354.0889,
        "meta_ephemeris_type": 0,
        "meta_classification_type": "U",
        "meta_norad_cat_id": 32052,
        "meta_element_set_no": 999,
        "meta_rev_at_epoch": 91761,
        "meta_bstar": 4.5909096e-05,
        "meta_mean_motion_dot": 5.9e-07,
        "meta_mean_motion_ddot": 0,
        "tle_line1": "1 32052U 07038A   25358.28926883  .00000059  00000+0  45909-4 0  9993",
        "tle_line2": "2 32052  82.9808 334.7942 0038554   6.0726 354.0889 13.75150493917616"
      },
      "geometry": {
        "type": "Point",
        "coordinates": [
          171.44433338106813,
          -67.09779483818059
        ]
      }
    },
    {
      "type": "Feature",
      "properties": {
        "norad_id": 35635,
        "name": "COSMOS 2454",
        "group": "musson",
        "lat": 78.20814116626948,
        "lon": -164.1052321057051,
        "alt_km": 910.2070130040538,
        "timestamp": "2025-12-24T16:52:41.801781+00:00",
        "meta_object_name": "COSMOS 2454",
        "meta_object_id": "2009-039A",
        "meta_epoch": "2025-12-23T22:00:46.624320",
        "meta_mean_motion": 13.89929976,
        "meta_eccentricity": 0.0020065,
        "meta_inclination": 82.9557,
        "meta_ra_of_asc_node": 160.1717,
        "meta_arg_of_pericenter": 43.6325,
        "meta_mean_anomaly": 65.7894,
        "meta_ephemeris_type": 0,
        "meta_classification_type": "U",
        "meta_norad_cat_id": 35635,
        "meta_element_set_no": 999,
        "meta_rev_at_epoch": 83305,
        "meta_bstar": 4.5962e-05,
        "meta_mean_motion_dot": 7.3e-07,
        "meta_mean_motion_ddot": 0,
        "tle_line1": "1 35635U 09039A   25357.91720630  .00000073  00000+0  45962-4 0  9992",
        "tle_line2": "2 35635  82.9557 160.1717 0020065  43.6325  65.7894 13.89929976833050"
      },
      "geometry": {
        "type": "Point",
        "coordinates": [
          -164.1052321057051,
          78.20814116626948
        ]
      }
    },
    {
      "type": "Feature",
      "properties": {
        "norad_id": 36519,
        "name": "COSMOS 2463",
        "group": "musson",
        "lat": 53.85650503747039,
        "lon": 27.66066909012576,
        "alt_km": 1012.7862666248893,
        "timestamp": "2025-12-24T16:52:41.801791+00:00",
        "meta_object_name": "COSMOS 2463",
        "meta_object_id": "2010-017A",
        "meta_epoch": "2025-12-24T04:41:53.219040",
        "meta_mean_motion": 13.71650092,
        "meta_eccentricity": 0.00347941,
        "meta_inclination": 82.9603,
        "meta_ra_of_asc_node": 18.2935,
        "meta_arg_of_pericenter": 255.0819,
        "meta_mean_anomaly": 174.6763,
        "meta_ephemeris_type": 0,
        "meta_classification_type": "U",
        "meta_norad_cat_id": 36519,
        "meta_element_set_no": 999,
        "meta_rev_at_epoch": 78394,
        "meta_bstar": 2.6201508e-05,
        "meta_mean_motion_dot": 3.8e-07,
        "meta_mean_motion_ddot": 0,
        "tle_line1": "1 36519U 10017A   25358.19575485  .00000038  00000+0  26202-4 0  9996",
        "tle_line2": "2 36519  82.9603  18.2935 0034794 255.0819 174.6763 13.71650092783948"
      },
      "geometry": {
        "type": "Point",
        "coordinates": [
          27.66066909012576,
          53.85650503747039
        ]
      }
    }
  ]
}